{"type": "FeatureCollection", "features": [ {"type": "Feature", "properties": {"norad_id": 37961, "name": "COSMOS 2251 DEB", "group": "cosmos-2251-debris", "lat": 23.421531037973157, "lon": 161.33629792010834, "alt_km": 724.2472717021046, "timestamp": "2025-12-03T17:47:51.116424+00:00", "meta": {"OBJECT_NAME": "COSMOS 2251 DEB", "OBJECT_ID": "1993-036BPL", "EPOCH": "2025-12-01T04:44:47.787648", "MEAN_MOTION": 14.57792656, "ECCENTRICITY": 0.0041244, "INCLINATION": 74.04, "RA_OF_ASC_NODE": 159.049, "ARG_OF_PERICENTER": 241.5465, "MEAN_ANOMALY": 118.1542, "EPHEMERIS_TYPE": 0, "CLASSIFICATION_TYPE": "U", "NORAD_CAT_ID": 37961, "ELEMENT_SET_NO": 999, "REV_AT_EPOCH": 79897, "BSTAR": 0.001072, "MEAN_MOTION_DOT": 4.934e-05, "MEAN_MOTION_DDOT": 0}, "tle": {"line1": "1 37961U 93036BPL 25335.19777532  .00004934  00000+0  10720-2 0  9997", "line2": "2 37961  74.0400 159.0490 0041244 241.5465 118.1542 14.57792656798977"}}, "geometry": {"type": "Point", "coordinates": [161.33629792010834, 23.421531037973157]}}, {"type": "Feature", "properties": {"norad_id": 37966, "name": "COSMOS 2251 DEB", "group": "cosmos-2251-debris", "lat": 1.7473349872356712, "lon": 68.73967765297185, "alt_km": 531.9066081931569, "timestamp": "2025-12-03T17:47:51.116436+00:00", "meta": {"OBJECT_NAME": "COSMOS 2251 DEB", "OBJECT_ID": "1993-036BPR", "EPOCH": "2025-12-02T10:49:19.602048", "MEAN_MOTION": 15.10966833, "ECCENTRICITY": 0.00084464, "INCLINATION": 73.9763, "RA_OF_ASC_NODE": 251.9188, "ARG_OF_PERICENTER": 125.6609, "MEAN_ANOMALY": 234.5371, "EPHEMERIS_TYPE": 0, "CLASSIFICATION_TYPE": "U", "NORAD_CAT_ID": 37966, "ELEMENT_SET_NO": 999, "REV_AT_EPOCH": 85187, "BSTAR": 0.0036739745, "MEAN_MOTION_DOT": 0.00061866, "MEAN_MOTION_DDOT": 0}, "tle": {"line1": "1 37966U 93036BPR 25336.45092132  .00061866  00000+0  36740-2 0  9995", "line2": "2 37966  73.9763 251.9188 0008446 125.6609 234.5371 15.10966833851879"}}, "geometry": {"type": "Point", "coordinates": [68.73967765297185, 1.7473349872356712]}}, {"type": "Feature", "properties": {"norad_id": 37967, "name": "COSMOS 2251 DEB", "group": "cosmos-2251-debris", "lat": 0.6458510073248528, "lon": 154.23596823161103, "alt_km": 714.7859610436899, "timestamp": "2025-12-03T17:47:51.116447+00:00", "meta": {"OBJECT_NAME": "COSMOS 2251 DEB", "OBJECT_ID": "1993-036BPS", "EPOCH": "2025-12-02T18:27:27.592704", "MEAN_MOTION": 14.4035347, "ECCENTRICITY": 0.01507388, "INCLINATION": 74.0137, "RA_OF_ASC_NODE": 155.8513, "ARG_OF_PERICENTER": 296.7858, "MEAN_ANOMALY": 61.7944, "EPHEMERIS_TYPE": 0, "CLASSIFICATION_TYPE": "U", "NORAD_CAT_ID": 37967, "ELEMENT_SET_NO": 999, "REV_AT_EPOCH": 64592, "BSTAR": 0.0017095367, "MEAN_MOTION_DOT": 6.178e-05, "MEAN_MOTION_DDOT": 0}, "tle": {"line1": "1 37967U 93036BPS 25336.76906936  .00006178  00000+0  17095-2 0  9993", "line2": "2 37967  74.0137 155.8513 0150738 296.7858  61.7944 14.40353470645921"}}, "geometry": {"type": "Point", "coordinates": [154.23596823161103, 0.6458510073248528]}}, {"type": "Feature", "properties": {"norad_id": 37968, "name": "COSMOS 2251 DEB", "group": "cosmos-2251-debris", "lat": 8.249699230302923, "lon": -68.11606672377447, "alt_km": 523.8182447083882, "timestamp": "2025-12-03T17:47:51.116458+00:00", "meta": {"OBJECT_NAME": "COSMOS 2251 DEB", "OBJECT_ID": "1993-036BPT", "EPOCH": "2025-12-03T03:21:20.781504", "MEAN_MOTION": 15.00197638, "ECCENTRICITY": 0.00808241, "INCLINATION": 74.0001, "RA_OF_ASC_NODE": 290.7252, "ARG_OF_PERICENTER": 48.8285, "MEAN_ANOMALY": 311.9836, "EPHEMERIS_TYPE": 0, "CLASSIFICATION_TYPE": "U", "NORAD_CAT_ID": 37968, "ELEMENT_SET_NO": 999, "REV_AT_EPOCH": 60075, "BSTAR": 0.0013441412, "MEAN_MOTION_DOT": 0.00018013, "MEAN_MOTION_DDOT": 0}, "tle": {"line1": "1 37968U 93036BPT 25337.13982386  .00018013  00000+0  13441-2 0  9991", "line2": "2 37968  74.0001 290.7252 0080824  48.8285 311.9836 15.00197638600750"}}, "geometry": {"type": "Point", "coordinates": [-68.11606672377447, 8.249699230302923]}}, {"type": "Feature", "properties": {"norad_id": 37971, "name": "COSMOS 2251 DEB", "group": "cosmos-2251-debris", "lat": 13.053859596576759, "lon": -125.17220398465805, "alt_km": 690.5779290559813, "timestamp": "2025-12-03T17:47:51.116469+00:00", "meta": {"OBJECT_NAME": "COSMOS 2251 DEB", "OBJECT_ID": "1993-036BPW", "EPOCH": "2025-12-03T12:03:21.947904", "MEAN_MOTION": 14.48378174, "ECCENTRICITY": 0.0068443, "INCLINATION": 73.9938, "RA_OF_ASC_NODE": 59.093, "ARG_OF_PERICENTER": 199.3195, "MEAN_ANOMALY": 160.5369, "EPHEMERIS_TYPE": 0, "CLASSIFICATION_TYPE": "U", "NORAD_CAT_ID": 37971, "ELEMENT_SET_NO": 999, "REV_AT_EPOCH": 60544, "BSTAR": 0.0031797, "MEAN_MOTION_DOT": 0.00012254, "MEAN_MOTION_DDOT": 0}, "tle": {"line1": "1 37971U 93036BPW 25337.50233736  .00012254  00000+0  31797-2 0  9999", "line2": "2 37971  73.9938  59.0930 0068443 199.3195 160.5369 14.48378174605442"}}, "geometry": {"type": "Point", "coordinates": [-125.17220398465805, 13.053859596576759]}}, {"type": "Feature", "properties": {"norad_id": 37975, "name": "COSMOS 2251 DEB", "group": "cosmos-2251-debris", "lat": -67.66904634574547, "lon": -153.982483621327, "alt_km": 637.2269408984839, "timestamp": "2025-12-03T17:47:51.116479+00:00", "meta": {"OBJECT_NAME": "COSMOS 2251 DEB", "OBJECT_ID": "1993-036BQA", "EPOCH": "2025-11-29T10:05:48.736608", "MEAN_MOTION": 14.74991313, "ECCENTRICITY": 0.00977788, "INCLINATION": 74.0026, "RA_OF_ASC_NODE": 350.1763, "ARG_OF_PERICENTER": 342.2584, "MEAN_ANOMALY": 17.5181, "EPHEMERIS_TYPE": 0, "CLASSIFICATION_TYPE": "U", "NORAD_CAT_ID": 37975, "ELEMENT_SET_NO": 999, "REV_AT_EPOCH": 69549, "BSTAR": 0.0028756754, "MEAN_MOTION_DOT": 0.00020929, "MEAN_MOTION_DDOT": 0}, "tle": {"line1": "1 37975U 93036BQA 25333.42070297  .00020929  00000+0  28757-2 0  9991", "line2": "2 37975  74.0026 350.1763 0097778 342.2584  17.5181 14.74991313695491"}}, "geometry": {"type": "Point", "coordinates": [-153.982483621327, -67.66904634574547]}}, {"type": "Feature", "properties": {"norad_id": 37978, "name": "COSMOS 2251 DEB", "group": "cosmos-2251-debris", "lat": -41.000303554438936, "lon": -56.03746129953448, "alt_km": 353.77222805229576, "timestamp": "2025-12-03T17:47:51.116490+00:00", "meta": {"OBJECT_NAME": "COSMOS 2251 DEB", "OBJECT_ID": "1993-036BQD", "EPOCH": "2025-11-19T05:08:53.100672", "MEAN_MOTION": 15.61137081, "ECCENTRICITY": 0.00148985, "INCLINATION": 74.0238, "RA_OF_ASC_NODE": 142.2198, "ARG_OF_PERICENTER": 140.9849, "MEAN_ANOMALY": 219.2448, "EPHEMERIS_TYPE": 0, "CLASSIFICATION_TYPE": "U", "NORAD_CAT_ID": 37978, "ELEMENT_SET_NO": 999, "REV_AT_EPOCH": 8032, "BSTAR": 0.0043958825, "MEAN_MOTION_DOT": 0.0039117, "MEAN_MOTION_DDOT": 0}, "tle": {"line1": "1 37978U 93036BQD 25323.21450348  .00391170  00000+0  43959-2 0  9999", "line2": "2 37978  74.0238 142.2198 0014898 140.9849 219.2448 15.61137081 80328"}}, "geometry": {"type": "Point", "coordinates": [-56.03746129953448, -41.000303554438936]}}, {"type": "Feature", "properties": {"norad_id": 37985, "name": "COSMOS 2251 DEB", "group": "cosmos-2251-debris", "lat": -3.8874470250864315, "lon": 103.36992287154447, "alt_km": 787.0333059638288, "timestamp": "2025-12-03T17:47:51.116501+00:00", "meta": {"OBJECT_NAME": "COSMOS 2251 DEB", "OBJECT_ID": "1993-036BQL", "EPOCH": "2025-11-30T03:38:35.089728", "MEAN_MOTION": 14.35476198, "ECCENTRICITY": 0.00203975, "INCLINATION": 74.025, "RA_OF_ASC_NODE": 288.8408, "ARG_OF_PERICENTER": 55.5438, "MEAN_ANOMALY": 304.7638, "EPHEMERIS_TYPE": 0, "CLASSIFICATION_TYPE": "U", "NORAD_CAT_ID": 37985, "ELEMENT_SET_NO": 999, "REV_AT_EPOCH": 64736, "BSTAR": 6.4630742e-05, "MEAN_MOTION_DOT": 1.6e-06, "MEAN_MOTION_DDOT": 0}, "tle": {"line1": "1 37985U 93036BQL 25334.15179502  .00000160  00000+0  64631-4 0  9990", "line2": "2 37985  74.0250 288.8408 0020397  55.5438 304.7638 14.35476198647366"}}, "geometry": {"type": "Point", "coordinates": [103.36992287154447, -3.8874470250864315]}}, {"type": "Feature", "properties": {"norad_id": 37988, "name": "COSMOS 2251 DEB", "group": "cosmos-2251-debris", "lat": -7.50243663868955, "lon": -136.43376125962538, "alt_km": 680.5690613771058, "timestamp": "2025-12-03T17:47:51.116512+00:00", "meta": {"OBJECT_NAME": "COSMOS 2251 DEB", "OBJECT_ID": "1993-036BQP", "EPOCH": "2025-12-03T03:52:26.915232", "MEAN_MOTION": 14.6871152, "ECCENTRICITY": 0.00633297, "INCLINATION": 74.0639, "RA_OF_ASC_NODE": 42.5299, "ARG_OF_PERICENTER": 83.2274, "MEAN_ANOMALY": 277.6097, "EPHEMERIS_TYPE": 0, "CLASSIFICATION_TYPE": "U", "NORAD_CAT_ID": 37988, "ELEMENT_SET_NO": 999, "REV_AT_EPOCH": 23255, "BSTAR": 0.0011291446, "MEAN_MOTION_DOT": 6.755e-05, "MEAN_MOTION_DDOT": 0}, "tle": {"line1": "1 37988U 93036BQP 25337.16142263  .00006755  00000+0  11291-2 0  9999", "line2": "2 37988  74.0639  42.5299 0063329  83.2274 277.6097 14.68711520232556"}}, "geometry": {"type": "Point", "coordinates": [-136.43376125962538, -7.50243663868955]}}, {"type": "Feature", "properties": {"norad_id": 37993, "name": "COSMOS 2251 DEB", "group": "cosmos-2251-debris", "lat": -67.9877863122836, "lon": 49.21796529077046, "alt_km": 686.1416155115148, "timestamp": "2025-12-03T17:47:51.116523+00:00", "meta": {"OBJECT_NAME": "COSMOS 2251 DEB", "OBJECT_ID": "1993-036BQU", "EPOCH": "2025-12-01T21:52:04.124640", "MEAN_MOTION": 14.59713379, "ECCENTRICITY": 0.0022073, "INCLINATION": 74.0242, "RA_OF_ASC_NODE": 187.5873, "ARG_OF_PERICENTER": 277.3102, "MEAN_ANOMALY": 82.5554, "EPHEMERIS_TYPE": 0, "CLASSIFICATION_TYPE": "U", "NORAD_CAT_ID": 37993, "ELEMENT_SET_NO": 999, "REV_AT_EPOCH": 65159, "BSTAR": 0.0013360965, "MEAN_MOTION_DOT": 6.369e-05, "MEAN_MOTION_DDOT": 0}, "tle": {"line1": "1 37993U 93036BQU 25335.91115885  .00006369  00000+0  13361-2 0  9997", "line2": "2 37993  74.0242 187.5873 0022073 277.3102  82.5554 14.59713379651591"}}, "geometry": {"type": "Point", "coordinates": [49.21796529077046, -67.9877863122836]}}]}